IRIDIUM 155             
1 43573U 18061E   21084.89557991  .00000103  00000-0  29724-4 0  9998
2 43573  86.3960 134.6692 0002774  98.6839 261.4671 14.34219470139690
IRIDIUM 154             
1 43574U 18061F   21085.15563316  .00000098  00000-0  27920-4 0  9996
2 43574  86.3963 134.6032 0001996  96.1019 264.0404 14.34218476139788
IRIDIUM 163             
1 43575U 18061G   21084.85753093  .00000099  00000-0  28215-4 0  9995
2 43575  86.3961 134.7013 0002241  80.4526 279.6922 14.34218897139717
IRIDIUM 156             
1 43576U 18061H   21084.83216590  .00000105  00000-0  30282-4 0  9995
2 43576  86.3962 134.7168 0002549  88.7157 271.4330 14.34217680139703
IRIDIUM 164             
1 43577U 18061J   21084.39453250  .00000097  00000-0  27637-4 0  9993
2 43577  86.3964 134.9111 0002047  91.6284 268.5146 14.34217785139688
IRIDIUM 159             
1 43578U 18061K   21084.43258001  .00000098  00000-0  27784-4 0  9990
2 43578  86.3962 134.8720 0002094  94.5427 265.6008 14.34217682139653
IRIDIUM 180             
1 43922U 19002A   21084.50184474  .00000092  00000-0  25662-4 0  9996
2 43922  86.3936  71.6549 0001300  70.6534 289.4802 14.34218074115271
IRIDIUM 176             
1 43923U 19002B   21084.47036773  .00000141  00000-0  18486-4 0  9992
2 43923  86.6071  71.6996 0002247  90.9591 269.1883 14.72252042118272
IRIDIUM 168             
1 43924U 19002C   21084.42574489  .00000089  00000-0  24626-4 0  9993
2 43924  86.3938  71.7100 0001915  88.5904 271.5511 14.34217053115242
IRIDIUM 173             
1 43925U 19002D   21084.97120436  .00000082  00000-0  22194-4 0  9994
2 43925  86.3936  71.4483 0002001  86.7961 273.3464 14.34217830115310
IRIDIUM 169             
1 43926U 19002E   21084.32038000  .00000088  00000-0  22313-4 0  9998
2 43926  86.4175 103.3427 0006522 131.7914 228.3842 14.38609664115641
IRIDIUM 172             
1 43927U 19002F   21084.89507957  .00000087  00000-0  23838-4 0  9995
2 43927  86.3936  71.4822 0001901  86.1903 273.9510 14.34217248115307
IRIDIUM 175             
1 43928U 19002G   21084.46418216  .00000130  00000-0  16702-4 0  9999
2 43928  86.6055  71.5386 0002613  74.9075 285.2431 14.72252515118269
IRIDIUM 171             
1 43929U 19002H   21085.01559154  .00000080  00000-0  21519-4 0  9995
2 43929  86.3946  71.5261 0001936  89.8013 270.3404 14.34218165115311
IRIDIUM 170             
1 43930U 19002J   21084.47652135  .00000136  00000-0  17641-4 0  9992
2 43930  86.6071  71.7035 0002291  84.3121 275.8357 14.72252212118280
IRIDIUM 167             
1 43931U 19002K   21084.45109127  .00000092  00000-0  25740-4 0  9999
2 43931  86.3936  71.6736 0001422  79.6345 280.5011 14.34218978115236
